NORAD_CAT_ID,OBJECT_NAME,OBJECT_TYPE,EPOCH,MEAN_MOTION,ECCENTRICITY,INCLINATION,RA_OF_ASC_NODE,ARG_OF_PERICENTER,MEAN_ANOMALY,BSTAR,MEAN_MOTION_DOT,MEAN_MOTION_DDOT,TLE_LINE0,TLE_LINE1,TLE_LINE2,SEMIMAJOR_AXIS,PERIOD,APOGEE,PERIGEE,DECAYED
53178.0,STARLINK-4280,PAYLOAD,2023-01-11 20:10:39,15.08837338,0.0003052,53.2182,299.4589,27.8336,332.2819,7.920300000000001e-05,9.72e-06,0.0,0 STARLINK-4280,1 53178U 22083AY  23011.84073675  .00000972  00000-0  79203-4 0  9999,2 53178  53.2182 299.4589 0003052  27.8336 332.2819 15.08837338 27308,6917.889,95.438,541.865,537.6419999999998,0.0
53178.0,STARLINK-4280,PAYLOAD,2023-01-12 00:56:48,15.0884688,0.0002972,53.2179,298.5668,27.7285,332.3865,0.00010745,1.422e-05,0.0,0 STARLINK-4280,1 53178U 22083AY  23012.03945024  .00001422  00000-0  10745-3 0  9993,2 53178  53.2179 298.5668 0002972  27.7285 332.3865 15.08846880 27960,6917.859,95.437,541.78,537.668,0.0
53178.0,STARLINK-4280,PAYLOAD,2023-01-12 12:04:31,15.08833328,0.0002864,53.2179,296.4855,34.9891,325.1288,0.00016925,2.406e-05,0.0,0 STARLINK-4280,1 53178U 22083AY  23012.50313901  .00002406  00000-0  16925-3 0  9997,2 53178  53.2179 296.4855 0002864  34.9891 325.1288 15.08833328 28039,6917.901,95.438,541.747,537.784,0.0
53178.0,STARLINK-4280,PAYLOAD,2023-01-12 23:12:13,15.08829,0.0002914,53.2166,294.4019,40.278,319.8428,0.00011333,1.515e-05,0.0,0 STARLINK-4280,1 53178U 22083AY  23012.96682704  .00001515  00000-0  11333-3 0  9995,2 53178  53.2166 294.4019 0002914  40.2780 319.8428 15.08829000 28104,6917.914000000002,95.438,541.795,537.763,0.0
53178.0,STARLINK-4280,PAYLOAD,2023-01-13 02:22:59,15.08840094,0.0002705,53.2167,293.8098,36.9982,323.1196,9.1557e-05,1.169e-05,0.0,0 STARLINK-4280,1 53178U 22083AY  23013.09929999  .00001169  00000-0  91557-4 0  9992,2 53178  53.2167 293.8098 0002705  36.9982 323.1196 15.08840094 28127,6917.88,95.438,541.616,537.874,0.0
53178.0,STARLINK-4280,PAYLOAD,2023-01-13 11:55:18,15.08839275,0.0002681,53.217,292.0256,39.3183,320.8003,8.643e-05,1.087e-05,0.0,0 STARLINK-4280,1 53178U 22083AY  23013.49674121  .00001087  00000-0  86430-4 0  9993,2 53178  53.2170 292.0256 0002681  39.3183 320.8003 15.08839275 27557,6917.883000000001,95.438,541.602,537.893,0.0
53178.0,STARLINK-4280,PAYLOAD,2023-01-13 21:27:37,15.08836915,0.000262,53.2173,290.242,41.1385,318.9804,6.2419e-05,7.05e-06,0.0,0 STARLINK-4280,1 53178U 22083AY  23013.89418431  .00000705  00000-0  62419-4 0  9994,2 53178  53.2173 290.2420 0002620  41.1385 318.9804 15.08836915 27613,6917.89,95.438,541.567,537.942,0.0
53178.0,STARLINK-4280,PAYLOAD,2023-01-14 13:21:28,15.08843383,0.0002683999999999,53.2156,287.2684,50.6845,309.4385,0.00017175,2.446e-05,0.0,0 STARLINK-4280,1 53178U 22083AY  23014.55658083  .00002446  00000-0  17175-3 0  9999,2 53178  53.2156 287.2684 0002684  50.6845 309.4385 15.08843383 28345,6917.87,95.437,541.592,537.878,0.0
53178.0,STARLINK-4280,PAYLOAD,2023-01-15 03:39:56,15.08843258,0.0002463999999999,53.217,284.5915,51.0124,309.1087,5.8285e-05,6.39e-06,0.0,0 STARLINK-4280,1 53178U 22083AY  23015.15273967  .00000639  00000-0  58285-4 0  9990,2 53178  53.2170 284.5915 0002464  51.0124 309.1087 15.08843258 27806,6917.87,95.437,541.44,538.031,0.0
53178.0,STARLINK-4280,PAYLOAD,2023-01-15 13:12:16,15.08834955,0.0002516,53.2144,282.8055,59.6635,300.4606,5.3e-05,5.55e-06,0.0,0 STARLINK-4280,1 53178U 22083AY  23015.55018578  .00000555  00000-0  53000-4 0  9996,2 53178  53.2144 282.8055 0002516  59.6635 300.4606 15.08834955 28493,6917.896,95.438,541.501,538.02,0.0
53178.0,STARLINK-4280,PAYLOAD,2023-01-15 21:09:11,15.0883882,0.000254,53.2151,281.3196,63.1836,296.9416,7.3946e-05,8.89e-06,0.0,0 STARLINK-4280,1 53178U 22083AY  23015.88138486  .00000889  00000-0  73946-4 0  9994,2 53178  53.2151 281.3196 0002540  63.1836 296.9416 15.08838820 27910,6917.884,95.438,541.506,537.992,0.0
53178.0,STARLINK-4280,PAYLOAD,2023-01-16 00:19:56,15.088579800000002,0.0001896999999999,53.2171,280.7247,57.7232,302.3943,0.00031517,4.734e-05,0.0,0 STARLINK-4280,1 53178U 22083AY  23016.01385266  .00004734  00000-0  31517-3 0  9990,2 53178  53.2171 280.7247 0001897  57.7232 302.3943 15.08857980 28562,6917.825,95.436,541.003,538.378,0.0
53178.0,STARLINK-4280,PAYLOAD,2023-01-17 03:21:31,15.08833622,0.0001837,53.2164,275.66900000000004,74.9733,285.1462,-6.6072e-05,-1.339e-05,0.0,0 STARLINK-4280,1 53178U 22083AY  23017.13994957 -.00001339  00000-0 -66072-4 0  9992,2 53178  53.2164 275.6690 0001837  74.9733 285.1462 15.08833622 28730,6917.9,95.438,541.036,538.494,0.0
53178.0,STARLINK-4280,PAYLOAD,2023-01-17 09:43:04,15.08828699,0.0001896,53.217,274.4792,76.7743,283.3461,-6.2387e-05,-1.281e-05,0.0,0 STARLINK-4280,1 53178U 22083AY  23017.40491403 -.00001281  00000-0 -62387-4 0  9991,2 53178  53.2170 274.4792 0001896  76.7743 283.3461 15.08828699 28145,6917.915,95.438,541.092,538.4680000000001,0.0
53178.0,STARLINK-4280,PAYLOAD,2023-01-17 16:04:37,15.08826232,0.0001599,53.2165,273.29,79.2835,280.8337,4.9612e-05,5.01e-06,0.0,0 STARLINK-4280,1 53178U 22083AY  23017.66987715  .00000501  00000-0  49612-4 0  9993,2 53178  53.2165 273.2900 0001599  79.2835 280.8337 15.08826232 28816,6917.922,95.438,540.894,538.681,0.0
53178.0,STARLINK-4280,PAYLOAD,2023-01-18 01:36:55,15.08845356,0.000167,53.2165,271.5063,83.5623,276.5559,0.00013415,1.848e-05,0.0,0 STARLINK-4280,1 53178U 22083AY  23018.06730841  .00001848  00000-0  13415-3 0  9990,2 53178  53.2165 271.5063 0001670  83.5623 276.5559 15.08845356 28872,6917.8640000000005,95.437,540.884,538.5740000000001,0.0
53178.0,STARLINK-4280,PAYLOAD,2023-01-18 09:33:50,15.088450699999996,0.0001825,53.2176,270.0183,77.4857,282.634,5.9344e-05,6.57e-06,0.0,0 STARLINK-4280,1 53178U 22083AY  23018.39850604  .00000657  00000-0  59344-4 0  9995,2 53178  53.2176 270.0183 0001825  77.4857 282.6340 15.08845070 28299,6917.865,95.437,540.992,538.467,0.0
53178.0,STARLINK-4280,PAYLOAD,2023-01-18 20:41:33,15.08846943,0.0001717,53.2171,267.9393,89.7783,270.3406,0.00029463,4.405e-05,0.0,0 STARLINK-4280,1 53178U 22083AY  23018.86218924  .00004405  00000-0  29463-3 0  9993,2 53178  53.2171 267.9393 0001717  89.7783 270.3406 15.08846943 28361,6917.859,95.437,540.9119999999999,538.536,0.0
53178.0,STARLINK-4280,PAYLOAD,2023-01-19 09:24:38,15.08836689,0.000162,53.2167,265.5587,89.6072,270.5105,6.1609e-05,6.93e-06,0.0,0 STARLINK-4280,1 53178U 22083AY  23019.39211352  .00000693  00000-0  61609-4 0  9994,2 53178  53.2167 265.5587 0001620  89.6072 270.5105 15.08836689 29071,6917.891,95.438,540.876,538.635,0.0
53178.0,STARLINK-4280,PAYLOAD,2023-01-19 23:43:06,15.08834906,0.0001554999999999,53.2162,262.8814,99.4367,260.6801,-6.9528e-05,-1.394e-05,0.0,0 STARLINK-4280,1 53178U 22083AY  23019.98827489 -.00001394  00000-0 -69528-4 0  9992,2 53178  53.2162 262.8814 0001555  99.4367 260.6801 15.08834906 28535,6917.896,95.438,540.837,538.685,0.0
53178.0,STARLINK-4280,PAYLOAD,2023-01-20 17:12:21,15.08839597,0.0001434,53.2159,259.6114,101.0374,259.0779,0.00018353,2.634e-05,0.0,0 STARLINK-4280,1 53178U 22083AY  23020.71691674  .00002634  00000-0  18353-3 0  9995,2 53178  53.2159 259.6114 0001434 101.0374 259.0779 15.08839597 29271,6917.882,95.438,540.739,538.755,0.0
53178.0,STARLINK-4280,PAYLOAD,2023-01-21 21:49:17,15.08856239,0.0001475,53.2153,254.2597,94.6429,265.4731,0.00054065,8.331e-05,0.0,0 STARLINK-4280,1 53178U 22083AY  23021.90923273  .00008331  00000-0  54065-3 0  9990,2 53178  53.2153 254.2597 0001475  94.6429 265.4731 15.08856239 29455,6917.831,95.437,540.716,538.675,0.0
53178.0,STARLINK-4280,PAYLOAD,2023-01-22 10:32:22,15.088485,0.0001495,53.2152,251.8813,95.0387,265.0776,0.00021431,3.125e-05,0.0,0 STARLINK-4280,1 53178U 22083AY  23022.43915231  .00003125  00000-0  21431-3 0  9991,2 53178  53.2152 251.8813 0001495  95.0387 265.0776 15.08848500 29534,6917.854,95.437,540.754,538.685,0.0
53178.0,STARLINK-4280,PAYLOAD,2023-01-22 18:29:19,15.08837618,0.0001328,53.2161,250.3939,92.8735,267.2409,-2.7249e-05,-7.22e-06,0.0,0 STARLINK-4280,1 53178U 22083AY  23022.77035911 -.00000722  00000-0 -27249-4 0  9992,2 53178  53.2161 250.3939 0001328  92.8735 267.2409 15.08837618 29584,6917.888000000001,95.438,540.6709999999999,538.8340000000001,0.0
53178.0,STARLINK-4280,PAYLOAD,2023-01-23 00:50:51,15.08843418,0.0001308,53.2161,249.2039,95.8421,264.272,2.0848e-05,4.4e-07,0.0,0 STARLINK-4280,1 53178U 22083AY  23023.03531270  .00000044  00000-0  20848-4 0  9994,2 53178  53.2161 249.2039 0001308  95.8421 264.2720 15.08843418 29628,6917.87,95.437,540.64,538.83,0.0
53178.0,STARLINK-4280,PAYLOAD,2023-01-23 19:55:29,15.08837744,0.0001314,53.2163,245.6349,100.0555,260.0585,3.880300000000001e-07,-2.82e-06,0.0,0 STARLINK-4280,1 53178U 22083AY  23023.83019681 -.00000282  00000-0  38803-6 0  9996,2 53178  53.2163 245.6349 0001314 100.0555 260.0585 15.08837744 29749,6917.887,95.438,540.661,538.8430000000001,0.0
53178.0,STARLINK-4280,PAYLOAD,2023-01-24 00:41:37,15.08846351,0.0001257,53.2165,244.7427,98.5633,261.5502,1.3816e-05,-6.8e-07,0.0,0 STARLINK-4280,1 53178U 22083AY  23024.02891099 -.00000068  00000-0  13816-4 0  9996,2 53178  53.2165 244.7427 0001257  98.5633 261.5502 15.08846351 29774,6917.861,95.437,540.596,538.856,0.0
53178.0,STARLINK-4280,PAYLOAD,2023-01-24 19:46:16,15.08832026,0.0001161999999999,53.2168,241.1731,111.7717,248.3399,0.00019361,2.794e-05,0.0,0 STARLINK-4280,1 53178U 22083AY  23024.82379630  .00002794  00000-0  19361-3 0  9993,2 53178  53.2168 241.1731 0001162 111.7717 248.3399 15.08832026 29896,6917.905,95.438,540.5740000000001,538.966,0.0
53178.0,STARLINK-4280,PAYLOAD,2023-01-25 06:53:57,15.08839383,0.0001207,53.2172,239.0914,93.651,266.462,8.6763e-05,1.093e-05,0.0,0 STARLINK-4280,1 53178U 22083AY  23025.28747514  .00001093  00000-0  86763-4 0  9996,2 53178  53.2172 239.0914 0001207  93.6510 266.4620 15.08839383 29339,6917.882,95.438,540.582,538.9119999999999,0.0
